[{"OBJECT_NAME":"JILIN-1 GAOFEN 3D31","OBJECT_ID":"2022-048F","EPOCH":"2026-03-09T22:43:25.074336","MEAN_MOTION":15.6100761,"ECCENTRICITY":0.00020948,"INCLINATION":97.5608,"RA_OF_ASC_NODE":176.1853,"ARG_OF_PERICENTER":115.2158,"MEAN_ANOMALY":244.9316,"EPHEMERIS_TYPE":0,"CLASSIFICATION_TYPE":"U","NORAD_CAT_ID":52448,"ELEMENT_SET_NO":999,"REV_AT_EPOCH":21401,"BSTAR":0.0010031145,"MEAN_MOTION_DOT":0.00084827,"MEAN_MOTION_DDOT":0},{"OBJECT_NAME":"COSMOS 1408 DEB","OBJECT_ID":"1982-092ALR","EPOCH":"2026-03-09T18:12:47.403072","MEAN_MOTION":15.6244858,"ECCENTRICITY":0.00237417,"INCLINATION":82.5714,"RA_OF_ASC_NODE":343.2099,"ARG_OF_PERICENTER":182.9883,"MEAN_ANOMALY":177.1238,"EPHEMERIS_TYPE":0,"CLASSIFICATION_TYPE":"U","NORAD_CAT_ID":50621,"ELEMENT_SET_NO":999,"REV_AT_EPOCH":23606,"BSTAR":0.00039817485,"MEAN_MOTION_DOT":0.00035952,"MEAN_MOTION_DDOT":0}]
